start=new Date('2023-03-01T00:00:00.000Z').valueOf();
sats=[{"CLASSIFICATION_TYPE":"U","PERIAPSIS":"546.539","ARG_OF_PERICENTER":"92.4973","MEAN_MOTION_DDOT":"0.0000000000000","APOAPSIS":"547.919","CENTER_NAME":"EARTH","RCS_SIZE":"LARGE","EPHEMERIS_TYPE":"0","BSTAR":"-0.00000804760000","MEAN_ANOMALY":"267.6130","FILE":"3847656","ECCENTRICITY":"0.00009960","INCLINATION":"53.0523","MEAN_ELEMENT_THEORY":"SGP4","REF_FRAME":"TEME","RA_OF_ASC_NODE":"226.9219","PERIOD":"95.592","SITE":"AFETR","OBJECT_TYPE":"PAYLOAD","GP_ID":"227262998","NORAD_CAT_ID":"44959","OBJECT_ID":"2020-001AX","COUNTRY_CODE":"US","EPOCH":"2023-02-28T17:47:40.943904","TLE_LINE2":"2 44959  53.0523 226.9219 0000996  92.4973 267.6130 15.06395026173867","ELEMENT_SET_NO":"999","MEAN_MOTION":"15.06395026","SEMIMAJOR_AXIS":"6925.364","LAUNCH_DATE":"2020-01-07","MEAN_MOTION_DOT":"-0.00000401","TIME_SYSTEM":"UTC","TLE_LINE1":"1 44959U 20001AX  23059.74144611 -.00000401  00000-0 -80476-5 0  9998","DECAY_DATE":null,"REV_AT_EPOCH":"17386","OBJECT_NAME":"STARLINK-1076"},{"ECCENTRICITY":"0.00010990","FILE":"3847656","MEAN_ANOMALY":"266.8769","BSTAR":"0.00007498100000","EPHEMERIS_TYPE":"0","RCS_SIZE":"LARGE","CENTER_NAME":"EARTH","APOAPSIS":"547.987","MEAN_MOTION_DDOT":"0.0000000000000","ARG_OF_PERICENTER":"93.2346","PERIAPSIS":"546.465","CLASSIFICATION_TYPE":"U","DECAY_DATE":null,"OBJECT_NAME":"STARLINK-1080","REV_AT_EPOCH":"17389","TLE_LINE1":"1 44961U 20001AZ  23059.88151060  .00000836  00000-0  74981-4 0  9995","TIME_SYSTEM":"UTC","MEAN_MOTION_DOT":"0.00000836","LAUNCH_DATE":"2020-01-07","SEMIMAJOR_AXIS":"6925.361","MEAN_MOTION":"15.06395860","ELEMENT_SET_NO":"999","TLE_LINE2":"2 44961  53.0514 226.2952 0001099  93.2346 266.8769 15.06395860173893","EPOCH":"2023-02-28T21:09:22.515840","COUNTRY_CODE":"US","OBJECT_ID":"2020-001AZ","NORAD_CAT_ID":"44961","GP_ID":"227263247","OBJECT_TYPE":"PAYLOAD","SITE":"AFETR","PERIOD":"95.592","RA_OF_ASC_NODE":"226.2952","REF_FRAME":"TEME","MEAN_ELEMENT_THEORY":"SGP4","INCLINATION":"53.0514"},{"MEAN_MOTION_DOT":"0.00267855","TIME_SYSTEM":"UTC","LAUNCH_DATE":"2020-01-07","OBJECT_NAME":"STARLINK-1085","DECAY_DATE":null,"REV_AT_EPOCH":"17519","TLE_LINE1":"1 44963U 20001BB  23059.72688742  .00267855  00000-0  48858-2 0  9990","ELEMENT_SET_NO":"999","TLE_LINE2":"2 44963  52.9692 181.0425 0009278 323.1338  36.9029 15.47923701175192","SEMIMAJOR_AXIS":"6800.938","MEAN_MOTION":"15.47923701","COUNTRY_CODE":"US","OBJECT_ID":"2020-001BB","NORAD_CAT_ID":"44963","EPOCH":"2023-02-28T17:26:43.073088","RA_OF_ASC_NODE":"181.0425","REF_FRAME":"TEME","MEAN_ELEMENT_THEORY":"SGP4","INCLINATION":"52.9692","OBJECT_TYPE":"PAYLOAD","GP_ID":"227264498","SITE":"AFETR","PERIOD":"93.028","FILE":"3847656","MEAN_ANOMALY":"36.9029","ECCENTRICITY":"0.00092780","BSTAR":"0.00488580000000","EPHEMERIS_TYPE":"0","RCS_SIZE":"LARGE","CENTER_NAME":"EARTH","PERIAPSIS":"416.493","CLASSIFICATION_TYPE":"U","APOAPSIS":"429.113","MEAN_MOTION_DDOT":"0.0000000000000","ARG_OF_PERICENTER":"323.1338"},{"CLASSIFICATION_TYPE":"U","PERIAPSIS":"546.508","ARG_OF_PERICENTER":"78.4725","MEAN_MOTION_DDOT":"0.0000000000000","APOAPSIS":"547.961","CENTER_NAME":"EARTH","RCS_SIZE":"LARGE","EPHEMERIS_TYPE":"0","BSTAR":"-0.00000393750000","MEAN_ANOMALY":"281.6381","FILE":"3847656","ECCENTRICITY":"0.00010490","INCLINATION":"53.0527","MEAN_ELEMENT_THEORY":"SGP4","REF_FRAME":"TEME","RA_OF_ASC_NODE":"226.7562","PERIOD":"95.593","SITE":"AFETR","OBJECT_TYPE":"PAYLOAD","GP_ID":"227264249","NORAD_CAT_ID":"44964","OBJECT_ID":"2020-001BC","COUNTRY_CODE":"US","EPOCH":"2023-02-28T18:40:45.724800","TLE_LINE2":"2 44964  53.0527 226.7562 0001049  78.4725 281.6381 15.06393242173878","ELEMENT_SET_NO":"999","MEAN_MOTION":"15.06393242","SEMIMAJOR_AXIS":"6925.369","LAUNCH_DATE":"2020-01-07","MEAN_MOTION_DOT":"-0.00000340","TIME_SYSTEM":"UTC","TLE_LINE1":"1 44964U 20001BC  23059.77830700 -.00000340  00000-0 -39375-5 0  9992","REV_AT_EPOCH":"17387","DECAY_DATE":null,"OBJECT_NAME":"STARLINK-1086"},{"EPOCH":"2023-02-28T18:28:54.296832","COUNTRY_CODE":"US","OBJECT_ID":"2020-001BE","NORAD_CAT_ID":"44966","GP_ID":"227263497","OBJECT_TYPE":"PAYLOAD","SITE":"AFETR","PERIOD":"95.454","RA_OF_ASC_NODE":"226.4799","REF_FRAME":"TEME","MEAN_ELEMENT_THEORY":"SGP4","INCLINATION":"53.0504","REV_AT_EPOCH":"17387","DECAY_DATE":null,"OBJECT_NAME":"STARLINK-1088","TLE_LINE1":"1 44966U 20001BE  23059.77007288  .00020612  00000-0  13184-2 0  9990","TIME_SYSTEM":"UTC","MEAN_MOTION_DOT":"0.00020612","LAUNCH_DATE":"2020-01-07","SEMIMAJOR_AXIS":"6918.662","MEAN_MOTION":"15.08584466","ELEMENT_SET_NO":"999","TLE_LINE2":"2 44966  53.0504 226.4799 0001376 225.3522 134.7356 15.08584466173877","RCS_SIZE":"LARGE","CENTER_NAME":"EARTH","APOAPSIS":"541.479","MEAN_MOTION_DDOT":"0.0000000000000","ARG_OF_PERICENTER":"225.3522","PERIAPSIS":"539.575","CLASSIFICATION_TYPE":"U","ECCENTRICITY":"0.00013760","FILE":"3847656","MEAN_ANOMALY":"134.7356","BSTAR":"0.00131840000000","EPHEMERIS_TYPE":"0"},{"NORAD_CAT_ID":"44967","OBJECT_ID":"2020-001BF","COUNTRY_CODE":"US","EPOCH":"2023-02-28T18:08:54.534336","INCLINATION":"53.0542","REF_FRAME":"TEME","MEAN_ELEMENT_THEORY":"SGP4","RA_OF_ASC_NODE":"226.8541","PERIOD":"95.592","SITE":"AFETR","OBJECT_TYPE":"PAYLOAD","GP_ID":"227263747","LAUNCH_DATE":"2020-01-07","MEAN_MOTION_DOT":"0.00000245","TIME_SYSTEM":"UTC","TLE_LINE1":"1 44967U 20001BF  23059.75618674  .00000245  00000-0  35345-4 0  9991","DECAY_DATE":null,"REV_AT_EPOCH":"17387","OBJECT_NAME":"STARLINK-1089","TLE_LINE2":"2 44967  53.0542 226.8541 0001311  97.1491 262.9647 15.06401161173873","ELEMENT_SET_NO":"999","MEAN_MOTION":"15.06401161","SEMIMAJOR_AXIS":"6925.345","RCS_SIZE":"LARGE","CENTER_NAME":"EARTH","CLASSIFICATION_TYPE":"U","PERIAPSIS":"546.302","ARG_OF_PERICENTER":"97.1491","MEAN_MOTION_DDOT":"0.0000000000000","APOAPSIS":"548.118","MEAN_ANOMALY":"262.9647","FILE":"3847656","ECCENTRICITY":"0.00013110","EPHEMERIS_TYPE":"0","BSTAR":"0.00003534500000"},{"ECCENTRICITY":"0.00011950","MEAN_ANOMALY":"264.4563","FILE":"3847656","EPHEMERIS_TYPE":"0","BSTAR":"0.00018586000000","RCS_SIZE":"LARGE","CENTER_NAME":"EARTH","MEAN_MOTION_DDOT":"0.0000000000000","ARG_OF_PERICENTER":"95.6563","APOAPSIS":"548.025","CLASSIFICATION_TYPE":"U","PERIAPSIS":"546.370","TLE_LINE1":"1 44968U 20001BG  23059.88519263  .00002488  00000-0  18586-3 0  9998","DECAY_DATE":null,"OBJECT_NAME":"STARLINK-1090","REV_AT_EPOCH":"17389","TIME_SYSTEM":"UTC","MEAN_MOTION_DOT":"0.00002488","LAUNCH_DATE":"2020-01-07","MEAN_MOTION":"15.06405325","SEMIMAJOR_AXIS":"6925.332","TLE_LINE2":"2 44968  53.0519 226.2777 0001195  95.6563 264.4563 15.06405325173898","ELEMENT_SET_NO":"999","EPOCH":"2023-02-28T21:14:40.643232","NORAD_CAT_ID":"44968","COUNTRY_CODE":"US","OBJECT_ID":"2020-001BG","SITE":"AFETR","PERIOD":"95.592","OBJECT_TYPE":"PAYLOAD","GP_ID":"227263999","REF_FRAME":"TEME","MEAN_ELEMENT_THEORY":"SGP4","INCLINATION":"53.0519","RA_OF_ASC_NODE":"226.2777"},{"PERIAPSIS":"546.270","CLASSIFICATION_TYPE":"U","APOAPSIS":"548.168","ARG_OF_PERICENTER":"97.2479","MEAN_MOTION_DDOT":"0.0000000000000","RCS_SIZE":"LARGE","CENTER_NAME":"EARTH","BSTAR":"0.00005232200000","EPHEMERIS_TYPE":"0","FILE":"3847656","MEAN_ANOMALY":"262.8665","ECCENTRICITY":"0.00013700","RA_OF_ASC_NODE":"226.3123","INCLINATION":"53.0524","REF_FRAME":"TEME","MEAN_ELEMENT_THEORY":"SGP4","GP_ID":"227264749","OBJECT_TYPE":"PAYLOAD","PERIOD":"95.592","SITE":"AFETR","OBJECT_ID":"2020-001BH","COUNTRY_CODE":"US","NORAD_CAT_ID":"44969","EPOCH":"2023-02-28T21:04:04.035936","ELEMENT_SET_NO":"999","TLE_LINE2":"2 44969  53.0524 226.3123 0001370  97.2479 262.8665 15.06398206173883","SEMIMAJOR_AXIS":"6925.354","MEAN_MOTION":"15.06398206","LAUNCH_DATE":"2020-01-07","TIME_SYSTEM":"UTC","MEAN_MOTION_DOT":"0.00000498","REV_AT_EPOCH":"17388","DECAY_DATE":null,"OBJECT_NAME":"STARLINK-1092","TLE_LINE1":"1 44969U 20001BH  23059.87782449  .00000498  00000-0  52322-4 0  9992"},{"EPOCH":"2023-02-28T20:32:12.220800","OBJECT_ID":"2020-001BJ","COUNTRY_CODE":"US","NORAD_CAT_ID":"44970","GP_ID":"227262999","OBJECT_TYPE":"PAYLOAD","PERIOD":"95.591","SITE":"AFETR","RA_OF_ASC_NODE":"226.4091","INCLINATION":"53.0532","MEAN_ELEMENT_THEORY":"SGP4","REF_FRAME":"TEME","DECAY_DATE":null,"OBJECT_NAME":"STARLINK-1093","REV_AT_EPOCH":"17387","TLE_LINE1":"1 44970U 20001BJ  23059.85569700  .00003824  00000-0  27534-3 0  9997","LAUNCH_DATE":"2020-01-07","TIME_SYSTEM":"UTC","MEAN_MOTION_DOT":"0.00003824","SEMIMAJOR_AXIS":"6925.297","MEAN_MOTION":"15.06416676","ELEMENT_SET_NO":"999","TLE_LINE2":"2 44970  53.0532 226.4091 0001427 100.7243 259.3906 15.06416676173871","RCS_SIZE":"LARGE","CENTER_NAME":"EARTH","APOAPSIS":"548.151","ARG_OF_PERICENTER":"100.7243","MEAN_MOTION_DDOT":"0.0000000000000","PERIAPSIS":"546.174","CLASSIFICATION_TYPE":"U","ECCENTRICITY":"0.00014270","FILE":"3847656","MEAN_ANOMALY":"259.3906","BSTAR":"0.00027534000000","EPHEMERIS_TYPE":"0"},{"MEAN_ANOMALY":"279.6348","FILE":"3847813","ECCENTRICITY":"0.00013670","EPHEMERIS_TYPE":"0","BSTAR":"-0.00010320000000","RCS_SIZE":"LARGE","CENTER_NAME":"EARTH","CLASSIFICATION_TYPE":"U","PERIAPSIS":"546.324","MEAN_MOTION_DDOT":"0.0000000000000","ARG_OF_PERICENTER":"80.4796","APOAPSIS":"548.217","TIME_SYSTEM":"UTC","MEAN_MOTION_DOT":"-0.00001817","LAUNCH_DATE":"2020-01-07","TLE_LINE1":"1 44972U 20001BL  23059.75988351 -.00001817  00000-0 -10320-3 0  9992","DECAY_DATE":null,"REV_AT_EPOCH":"17387","OBJECT_NAME":"STARLINK-1107","TLE_LINE2":"2 44972  53.0538 226.8392 0001367  80.4796 279.6348 15.06381479173874","ELEMENT_SET_NO":"999","MEAN_MOTION":"15.06381479","SEMIMAJOR_AXIS":"6925.405","NORAD_CAT_ID":"44972","COUNTRY_CODE":"US","OBJECT_ID":"2020-001BL","EPOCH":"2023-02-28T18:14:13.935264","MEAN_ELEMENT_THEORY":"SGP4","REF_FRAME":"TEME","INCLINATION":"53.0538","RA_OF_ASC_NODE":"226.8392","SITE":"AFETR","PERIOD":"95.593","GP_ID":"227274587","OBJECT_TYPE":"PAYLOAD"}];
